{
    "links": {
        "self": "http://www.neowsapp.com/rest/v1/neo/3729539?api_key=iIulBulltgU6a56xZRHN4H3l9WmuAYTsLGpBGhQ2"
    },
    "id": "3729539",
    "neo_reference_id": "3729539",
    "name": "(2015 TZ143)",
    "designation": "2015 TZ143",
    "nasa_jpl_url": "http://ssd.jpl.nasa.gov/sbdb.cgi?sstr=3729539",
    "absolute_magnitude_h": 26.3,
    "estimated_diameter": {
        "kilometers": {
            "estimated_diameter_min": 0.0146067964,
            "estimated_diameter_max": 0.0326617897
        },
        "meters": {
            "estimated_diameter_min": 14.6067964271,
            "estimated_diameter_max": 32.6617897446
        },
        "miles": {
            "estimated_diameter_min": 0.0090762397,
            "estimated_diameter_max": 0.020295089
        },
        "feet": {
            "estimated_diameter_min": 47.92256199,
            "estimated_diameter_max": 107.1581062656
        }
    },
    "is_potentially_hazardous_asteroid": false,
    "close_approach_data": [
        {
            "close_approach_date": "1971-09-08",
            "close_approach_date_full": "1971-Sep-08 06:51",
            "epoch_date_close_approach": 53160660000,
            "relative_velocity": {
                "kilometers_per_second": "6.7892455357",
                "kilometers_per_hour": "24441.2839285943",
                "miles_per_hour": "15186.8633388535"
            },
            "miss_distance": {
                "astronomical": "1.8552087387",
                "lunar": "721.6761993543",
                "kilometers": "277535275.714906569",
                "miles": "172452423.6041018922"
            },
            "orbiting_body": "Juptr"
        },
        {
            "close_approach_date": "2015-10-22",
            "close_approach_date_full": "2015-Oct-22 05:43",
            "epoch_date_close_approach": 1445492580000,
            "relative_velocity": {
                "kilometers_per_second": "10.2557902687",
                "kilometers_per_hour": "36920.8449673823",
                "miles_per_hour": "22941.1772520937"
            },
            "miss_distance": {
                "astronomical": "0.0107984256",
                "lunar": "4.2005875584",
                "kilometers": "1615421.469113472",
                "miles": "1003776.3551790336"
            },
            "orbiting_body": "Earth"
        },
        {
            "close_approach_date": "2078-01-05",
            "close_approach_date_full": "2078-Jan-05 23:47",
            "epoch_date_close_approach": 3408652020000,
            "relative_velocity": {
                "kilometers_per_second": "14.6865927589",
                "kilometers_per_hour": "52871.7339319032",
                "miles_per_hour": "32852.4393422984"
            },
            "miss_distance": {
                "astronomical": "0.1663287614",
                "lunar": "64.7018881846",
                "kilometers": "24882428.425178218",
                "miles": "15461224.0769186884"
            },
            "orbiting_body": "Earth"
        }
    ],
    "orbital_data": {
        "orbit_id": "10",
        "orbit_determination_date": "2017-04-06 08:31:28",
        "first_observation_date": "2015-10-09",
        "last_observation_date": "2015-10-23",
        "data_arc_in_days": 14,
        "observations_used": 63,
        "orbit_uncertainty": "7",
        "minimum_orbit_intersection": ".00301042",
        "jupiter_tisserand_invariant": "3.105",
        "epoch_osculation": "2459000.5",
        "eccentricity": ".6371208239741977",
        "semi_major_axis": "2.574195210653764",
        "inclination": "2.582432287937663",
        "ascending_node_longitude": "202.0473694635628",
        "orbital_period": "1508.553246481049",
        "perihelion_distance": ".9341218369716047",
        "perihelion_argument": "216.6176373244866",
        "aphelion_distance": "4.214268584335924",
        "perihelion_time": "2458856.161358429345",
        "mean_anomaly": "34.44486370411222",
        "mean_motion": ".2386392398410595",
        "equinox": "J2000",
        "orbit_class": {
            "orbit_class_type": "APO",
            "orbit_class_description": "Near-Earth asteroid orbits which cross the Earth’s orbit similar to that of 1862 Apollo",
            "orbit_class_range": "a (semi-major axis) > 1.0 AU; q (perihelion) < 1.017 AU"
        }
    },
    "is_sentry_object": false
}